     2.100          NAVIGATION                              RINEX VERSION / TYPE
fic2rin                                 04/21/2011 00:12:44 PGM / RUN BY / DATE
                                                            END OF HEADER
28 11  4 20  6  0  0.0  .325483269989D-04  .238742359215D-11  .000000000000D+00
     .500000000000D+01 -.240000000000D+02  .403516808095D-08 -.180638093993D+01
    -.111572444439D-05  .169717151439D-01  .112559646368D-04  .515369849396D+04
     .280800000000D+06  .320374965668D-06 -.229511771305D+01  .147148966789D-06
     .974055457160D+00  .163375000000D+03 -.189118531352D+01 -.744102423424D-08
     .722172938544D-09  .100000000000D+01  .163200000000D+04  .000000000000D+00
     .240000000000D+01  .000000000000D+00 -.107102096081D-07  .500000000000D+01
     .273606000000D+06  .400000000000D+01
29 11  4 20  6  0  0.0  .201222021133D-03  .306954461848D-11  .000000000000D+00
     .810000000000D+02  .243750000000D+01  .516200073234D-08  .430146432983D+00
     .160187482834D-06  .271226547193D-02  .526756048203D-05  .515352957726D+04
     .280800000000D+06 -.521540641785D-07 -.125108418838D+01  .242143869400D-07
     .961123292060D+00  .281937500000D+03 -.124553979030D+01 -.833677583161D-08
     .137862885400D-09  .100000000000D+01  .163200000000D+04  .000000000000D+00
     .240000000000D+01  .000000000000D+00 -.884756445885D-08  .810000000000D+02
     .273606000000D+06  .400000000000D+01
30 11  4 20  6  0  0.0  .338262878358D-03  .284217094304D-11  .000000000000D+00
     .570000000000D+02 -.215937500000D+02  .433910931275D-08 -.267127512945D+01
    -.129453837872D-05  .126184053952D-01  .113639980555D-04  .515366518593D+04
     .280800000000D+06  .122934579849D-06 -.237868278729D+01  .130385160446D-07
     .960197168363D+00  .153468750000D+03  .152145183373D+01 -.758853037846D-08
     .617525722425D-09  .100000000000D+01  .163200000000D+04  .000000000000D+00
     .340000000000D+01  .000000000000D+00 -.791624188423D-08  .570000000000D+02
     .273606000000D+06  .400000000000D+01
31 11  4 20  6  0  0.0  .689895823598D-04  .522959453519D-11  .000000000000D+00
     .460000000000D+02 -.132812500000D+03  .395123601341D-08  .985794382887D+00
    -.691600143909D-05  .772750936449D-02  .720843672752D-05  .515364588165D+04
     .280800000000D+06  .465661287308D-07  .290988825365D+01 -.184401869774D-06
     .979730451397D+00  .248343750000D+03 -.962433288387D+00 -.792783022595D-08
    -.154649298907D-09  .100000000000D+01  .163200000000D+04  .000000000000D+00
     .240000000000D+01  .000000000000D+00 -.130385160446D-07  .460000000000D+02
     .273606000000D+06  .400000000000D+01
32 11  4 20  6  0  0.0 -.238517764956D-03 -.738964445191D-11  .000000000000D+00
     .520000000000D+02  .148843750000D+03  .432375153018D-08  .170037599850D+01
     .764988362789D-05  .122013839427D-01  .843778252602D-05  .515370650101D+04
     .280800000000D+06  .223517417908D-06  .892396449608D+00  .165775418282D-06
     .955509782806D+00  .209937500000D+03 -.797900891821D+00 -.787318509262D-08
     .328585115460D-10  .100000000000D+01  .163200000000D+04  .000000000000D+00
     .240000000000D+01  .000000000000D+00 -.325962901115D-08  .520000000000D+02
     .273606000000D+06  .400000000000D+01
25 11  4 20  5 59 44.0 -.112457200885D-05  .227373675443D-12  .000000000000D+00
     .700000000000D+02 -.253750000000D+02  .435410993758D-08 -.665484202100D+00
    -.133365392685D-05  .650230213068D-03  .108182430267D-04  .515367243576D+04
     .280784000000D+06  .242143869400D-07 -.234957977443D+01 -.242143869400D-07
     .963555776651D+00  .175375000000D+03  .809846305509D+00 -.781853995929D-08
     .531807866218D-09  .100000000000D+01  .163200000000D+04  .000000000000D+00
     .240000000000D+01  .000000000000D+00  .465661287308D-08  .700000000000D+02
     .274566000000D+06  .400000000000D+01
 3 11  4 20  5 59 44.0  .704366713762D-03  .511590769747D-11  .000000000000D+00
     .410000000000D+02  .145000000000D+02  .576345435672D-08  .264367641039D+01
     .555068254471D-06  .141022261232D-01  .487454235554D-05  .515364084435D+04
     .280784000000D+06  .447034835815D-07 -.141531132953D+01 -.188127160072D-06
     .928179844222D+00  .266437500000D+03  .108344331326D+01 -.836963434315D-08
     .249296098469D-09  .100000000000D+01  .163200000000D+04  .000000000000D+00
     .240000000000D+01  .000000000000D+00 -.419095158577D-08  .410000000000D+02
     .277236000000D+06  .400000000000D+01
 3 11  4 20  7 59 44.0  .704403035343D-03  .511590769747D-11  .000000000000D+00
     .490000000000D+02  .185312500000D+02  .578452666304D-08 -.258929833513D+01
     .774860382080D-06  .141015234403D-01  .498443841934D-05  .515364215279D+04
     .287984000000D+06  .244006514549D-06 -.141537273991D+01 -.670552253723D-07
     .928181896696D+00  .263500000000D+03  .108344293144D+01 -.844356599413D-08
     .410731394325D-09  .100000000000D+01  .163200000000D+04  .000000000000D+00
     .240000000000D+01  .000000000000D+00 -.419095158577D-08  .490000000000D+02
     .280806000000D+06  .400000000000D+01
 1 11  4 20  8  0  0.0 -.223773997277D-03 -.250111042988D-11  .000000000000D+00
     .390000000000D+02 -.272187500000D+02  .418374569837D-08 -.793506828653D+00
    -.133365392685D-05  .466600095388D-02  .107120722532D-04  .515359761047D+04
     .288000000000D+06  .428408384323D-07 -.233675123367D+01  .465661287308D-07
     .968634627383D+00  .177500000000D+03  .862343973665D+00 -.780032491484D-08
     .543236913712D-09  .100000000000D+01  .163200000000D+04  .000000000000D+00
     .240000000000D+01  .630000000000D+02 -.195577740669D-07  .390000000000D+02
     .280806000000D+06  .400000000000D+01
 2 11  4 20  8  0  0.0  .331868417561D-03  .216004991671D-11  .000000000000D+00
     .690000000000D+02 -.147500000000D+02  .502913805522D-08 -.264310699732D+01
    -.810250639915D-06  .101905908668D-01  .997819006443D-05  .515374231720D+04
     .288000000000D+06 -.167638063431D-06 -.257797510050D+00 -.163912773132D-06
     .939436014298D+00  .173843750000D+03 -.302138279517D+01 -.804747806691D-08
    -.718244203468D-09  .100000000000D+01  .163200000000D+04  .000000000000D+00
     .240000000000D+01  .000000000000D+00 -.172294676304D-07  .690000000000D+02
     .280806000000D+06  .400000000000D+01
 4 11  4 20  8  0  0.0  .932924449444D-04  .104591890704D-10  .000000000000D+00
     .550000000000D+02 -.105000000000D+02  .515557189312D-08  .465671572816D+00
    -.299885869026D-06  .957581424154D-02  .969134271145D-05  .515363127136D+04
     .288000000000D+06 -.931322574615D-08 -.240376591484D+00  .111758708954D-06
     .938541066848D+00  .179718750000D+03  .717999827575D+00 -.830677458193D-08
    -.772175021332D-09  .100000000000D+01  .163200000000D+04  .000000000000D+00
     .240000000000D+01  .000000000000D+00 -.605359673500D-08  .550000000000D+02
     .280806000000D+06  .400000000000D+01
 5 11  4 20  8  0  0.0 -.147437211126D-03 -.579802872380D-11  .000000000000D+00
     .710000000000D+02  .146562500000D+03  .433982362822D-08 -.813518823833D+00
     .752136111259D-05  .224496598821D-02  .103656202555D-04  .515366104507D+04
     .288000000000D+06  .558793544769D-07  .803314368971D+00 -.335276126862D-07
     .954825004020D+00  .177093750000D+03  .256313202645D+00 -.798211820155D-08
    -.342871424828D-10  .100000000000D+01  .163200000000D+04  .000000000000D+00
     .240000000000D+01  .000000000000D+00 -.977888703346D-08  .710000000000D+02
     .280806000000D+06  .400000000000D+01
 6 11  4 20  8  0  0.0  .653055496514D-03 -.106410880107D-09  .000000000000D+00
     .160000000000D+02  .119687500000D+02  .571523806261D-08 -.526137420741D+00
     .527128577232D-06  .668803218286D-02  .525265932083D-05  .515363501549D+04
     .288000000000D+06 -.484287738800D-07 -.134199439728D+01 -.707805156708D-07
     .935336856397D+00  .266375000000D+03 -.819705238139D+00 -.867607567909D-08
     .286083345091D-09  .100000000000D+01  .163200000000D+04  .000000000000D+00
     .240000000000D+01  .000000000000D+00 -.465661287308D-08  .160000000000D+02
     .280806000000D+06  .400000000000D+01
 7 11  4 20  8  0  0.0  .865012407303D-05  .102318153949D-11  .000000000000D+00
     .780000000000D+02 -.146531250000D+03  .407659837811D-08  .203367457457D+01
    -.754930078983D-05  .430818926543D-02  .702030956745D-05  .515367091560D+04
     .288000000000D+06 -.353902578354D-07  .290874451942D+01  .117346644402D-06
     .974562958070D+00  .249968750000D+03 -.312436722623D+01 -.799211861811D-08
    -.262153776900D-09  .100000000000D+01  .163200000000D+04  .000000000000D+00
     .340000000000D+01  .000000000000D+00 -.107102096081D-07  .780000000000D+02
     .280806000000D+06  .400000000000D+01
 8 11  4 20  8  0  0.0  .776490196586D-05  .113686837722D-12  .000000000000D+00
     .620000000000D+02 -.144468750000D+03  .355014787791D-08  .150106980951D+01
    -.738166272640D-05  .115146083990D-01  .813417136669D-05  .515360491562D+04
     .288000000000D+06 -.335276126862D-07  .298344322023D+01  .182539224625D-06
     .996276353309D+00  .242500000000D+03 -.308032007071D+01 -.769889211833D-08
    -.365372362083D-09  .100000000000D+01  .163200000000D+04  .000000000000D+00
     .340000000000D+01  .000000000000D+00 -.465661287308D-08  .620000000000D+02
     .280806000000D+06  .400000000000D+01
 9 11  4 20  8  0  0.0  .749127939343D-04  .227373675443D-11  .000000000000D+00
     .690000000000D+02 -.144187500000D+03  .385837500252D-08  .134324861839D+01
    -.773370265961D-05  .172330787173D-01  .603497028351D-05  .515367947388D+04
     .288000000000D+06 -.633299350739D-07  .288003688359D+01 -.361353158951D-06
     .983484337225D+00  .279531250000D+03  .156102111843D+01 -.806355016495D-08
    -.211080220910D-09  .100000000000D+01  .163200000000D+04  .000000000000D+00
     .240000000000D+01  .000000000000D+00 -.558793544769D-08  .690000000000D+02
     .280806000000D+06  .400000000000D+01
